$$SOE
2460721.500000000, A.D. 2025-Feb-15 00:00:00.0000, 8.240374326222506E+07, -3.082163465449429E+08, 1.539632893182154E+07,
2460728.500000000, A.D. 2025-Feb-22 00:00:00.0000, 9.380720946828777E+07, -3.031682378722835E+08, 1.545090649307528E+07,
2460735.500000000, A.D. 2025-Mar-01 00:00:00.0000, 1.050686690673035E+08, -2.976614008347163E+08, 1.548210066728446E+07,
2460742.500000000, A.D. 2025-Mar-08 00:00:00.0000, 1.161685254098449E+08, -2.916969278786234E+08, 1.548948728143969E+07,
2460749.500000000, A.D. 2025-Mar-15 00:00:00.0000, 1.270868350977071E+08, -2.852767611924059E+08, 1.547267086382183E+07,
2460756.500000000, A.D. 2025-Mar-22 00:00:00.0000, 1.378033384790847E+08, -2.784037403313137E+08, 1.543128776686417E+07,
2460763.500000000, A.D. 2025-Mar-29 00:00:00.0000, 1.482974964832498E+08, -2.710816520527608E+08, 1.536500909832737E+07,
2460770.500000000, A.D. 2025-Apr-05 00:00:00.0000, 1.585485343937295E+08, -2.633152787823499E+08, 1.527354367452301E+07,
2460777.500000000, A.D. 2025-Apr-12 00:00:00.0000, 1.685354908768616E+08, -2.551104451094913E+08, 1.515664116491525E+07,
2460784.500000000, A.D. 2025-Apr-19 00:00:00.0000, 1.782372722817594E+08, -2.464740626378780E+08, 1.501409535379359E+07,
2460791.500000000, A.D. 2025-Apr-26 00:00:00.0000, 1.876327126380184E+08, -2.374141727805656E+08, 1.484574745439735E+07,
2460798.500000000, A.D. 2025-May-03 00:00:00.0000, 1.967006395601233E+08, -2.279399868134047E+08, 1.465148943987542E+07,
2460805.500000000, A.D. 2025-May-10 00:00:00.0000, 2.054199461105614E+08, -2.180619224613062E+08, 1.443126735845636E+07,
2460812.500000000, A.D. 2025-May-17 00:00:00.0000, 2.137696685975229E+08, -2.077916362954924E+08, 1.418508459081601E+07,
2460819.500000000, A.D. 2025-May-24 00:00:00.0000, 2.217290703284424E+08, -1.971420511939026E+08, 1.391300498981702E+07,
2460826.500000000, A.D. 2025-May-31 00:00:00.0000, 2.292777314877432E+08, -1.861273777293026E+08, 1.361515584858637E+07,
2460833.500000000, A.D. 2025-Jun-07 00:00:00.0000, 2.363956443773400E+08, -1.747631274546399E+08, 1.329173078999768E+07,
2460840.500000000, A.D. 2025-Jun-14 00:00:00.0000, 2.430633111639627E+08, -1.630661179353862E+08, 1.294299269408280E+07,
2460847.500000000, A.D. 2025-Jun-21 00:00:00.0000, 2.492618447174779E+08, -1.510544719985980E+08, 1.256927623356877E+07,
2460854.500000000, A.D. 2025-Jun-28 00:00:00.0000, 2.549730748964292E+08, -1.387476086671483E+08, 1.217098982056678E+07,
2460861.500000000, A.D. 2025-Jul-05 00:00:00.0000, 2.601796578578763E+08, -1.261662229133801E+08, 1.174861722375322E+07,
2460868.500000000, A.D. 2025-Jul-12 00:00:00.0000, 2.648651861720963E+08, -1.133322544070670E+08, 1.130271884439349E+07,
2460875.500000000, A.D. 2025-Jul-19 00:00:00.0000, 2.690142987986270E+08, -1.002688453150319E+08, 1.083393253734164E+07,
2460882.500000000, A.D. 2025-Jul-26 00:00:00.0000, 2.726127899023774E+08, -8.700028684097801E+07, 1.034297391112683E+07,
2460889.500000000, A.D. 2025-Aug-02 00:00:00.0000, 2.756477152468376E+08, -7.355195428662089E+07, 9.830636066336311E+06,
2460896.500000000, A.D. 2025-Aug-09 00:00:00.0000, 2.781074947767918E+08, -5.995023063134038E+07, 9.297788736321488E+06,
2460903.500000000, A.D. 2025-Aug-16 00:00:00.0000, 2.799820100029466E+08, -4.622241886744113E+07, 8.745376790269470E+06,
2460910.500000000, A.D. 2025-Aug-23 00:00:00.0000, 2.812626949936793E+08, -3.239664345210130E+07, 8.174418051860047E+06,
2460917.500000000, A.D. 2025-Aug-30 00:00:00.0000, 2.819426198308301E+08, -1.850174074514921E+07, 7.586000450110360E+06,
2460924.500000000, A.D. 2025-Sep-06 00:00:00.0000, 2.820165637142168E+08, -4.567138230695379E+06, 6.981278717507906E+06,
2460931.500000000, A.D. 2025-Sep-13 00:00:00.0000, 2.814810747503250E+08, 9.377273963771790E+06, 6.361470600854423E+06,
2460938.500000000, A.D. 2025-Sep-20 00:00:00.0000, 2.803345185121843E+08, 2.330127636805023E+07, 5.727852173173902E+06,
2460945.500000000, A.D. 2025-Sep-27 00:00:00.0000, 2.785771153978856E+08, 3.717445998711506E+07, 5.081752438795203E+06,
2460952.500000000, A.D. 2025-Oct-04 00:00:00.0000, 2.762109639393222E+08, 5.096637160330846E+07, 4.424547508416481E+06,
2460959.500000000, A.D. 2025-Oct-11 00:00:00.0000, 2.732400490761261E+08, 6.464666192287933E+07, 3.757654360111505E+06,
2460966.500000000, A.D. 2025-Oct-18 00:00:00.0000, 2.696702353105722E+08, 7.818523451436231E+07, 3.082524206835978E+06,
2460973.500000000, A.D. 2025-Oct-25 00:00:00.0000, 2.655092447815581E+08, 9.155239373218945E+07, 2.400635536851119E+06,
2460980.500000000, A.D. 2025-Nov-01 00:00:00.0000, 2.607666204738016E+08, 1.047189898219352E+08, 1.713486910302065E+06,
2460987.500000000, A.D. 2025-Nov-08 00:00:00.0000, 2.554536750473825E+08, 1.176565593930261E+08, 1.022589596287802E+06,
2460994.500000000, A.D. 2025-Nov-15 00:00:00.0000, 2.495834261438040E+08, 1.303374594948731E+08, 3.294601238266230E+05,
2461001.500000000, A.D. 2025-Nov-22 00:00:00.0000, 2.431705195136232E+08, 1.427349939268513E+08, -3.643871817911342E+05,
2461008.500000000, A.D. 2025-Nov-29 00:00:00.0000, 2.362311409480371E+08, 1.548235314773854E+08, -1.057447483515874E+06,
2461015.500000000, A.D. 2025-Dec-06 00:00:00.0000, 2.287829160352453E+08, 1.665786147219224E+08, -1.748232254488997E+06,
2461022.500000000, A.D. 2025-Dec-13 00:00:00.0000, 2.208447996456655E+08, 1.779770550077522E+08, -2.435275871620297E+06,
2461029.500000000, A.D. 2025-Dec-20 00:00:00.0000, 2.124369602151868E+08, 1.889970138575364E+08, -3.117142147847094E+06,
2461036.500000000, A.D. 2025-Dec-27 00:00:00.0000, 2.035806593699568E+08, 1.996180728300552E+08, -3.792430431009844E+06,
2461043.500000000, A.D. 2026-Jan-03 00:00:00.0000, 1.942981270784835E+08, 2.098212909209493E+08, -4.459781132389322E+06,
2461050.500000000, A.D. 2026-Jan-10 00:00:00.0000, 1.846124340762639E+08, 2.195892487589482E+08, -5.117880707768530E+06,
2461057.500000000, A.D. 2026-Jan-17 00:00:00.0000, 1.745473633801115E+08, 2.289060796616905E+08, -5.765466088255212E+06,
2461064.500000000, A.D. 2026-Jan-24 00:00:00.0000, 1.641272824710445E+08, 2.377574879330401E+08, -6.401328545492113E+06,
2461071.500000000, A.D. 2026-Jan-31 00:00:00.0000, 1.533770175594611E+08, 2.461307549349139E+08, -7.024316983866110E+06,
2461078.500000000, A.D. 2026-Feb-07 00:00:00.0000, 1.423217312521329E+08, 2.540147335723343E+08, -7.633340669761747E+06,
2461085.500000000, A.D. 2026-Feb-14 00:00:00.0000, 1.309868049841184E+08, 2.613998320016258E+08, -8.227371431123063E+06,
2461092.500000000, A.D. 2026-Feb-21 00:00:00.0000, 1.193977275578969E+08, 2.682779880664107E+08, -8.805445333185375E+06,
2461099.500000000, A.D. 2026-Feb-28 00:00:00.0000, 1.075799895015897E+08, 2.746426366060327E+08, -9.366663662043139E+06,
2461106.500000000, A.D. 2026-Mar-07 00:00:00.0000, 9.555898180692042E+07, 2.804886687057687E+08, -9.910193215134591E+06,
2461113.500000000, A.D. 2026-Mar-14 00:00:00.0000, 8.335990227761798E+07, 2.858123816203677E+08, -1.043526637634933E+07,
2461120.500000000, A.D. 2026-Mar-21 00:00:00.0000, 7.100767159910861E+07, 2.906114233358025E+08, -1.094118094286053E+07,
2461127.500000000, A.D. 2026-Mar-28 00:00:00.0000, 5.852685730176669E+07, 2.948847338189312E+08, -1.142729947680385E+07,
2461134.500000000, A.D. 2026-Apr-04 00:00:00.0000, 4.594160506250306E+07, 2.986324829721627E+08, -1.189304824708530E+07,
2461141.500000000, A.D. 2026-Apr-11 00:00:00.0000, 3.327557755955031E+07, 3.018560058627147E+08, -1.233791585851404E+07,
2461148.500000000, A.D. 2026-Apr-18 00:00:00.0000, 2.055190088526478E+07, 3.045577360760313E+08, -1.276145162502296E+07,
2461155.500000000, A.D. 2026-Apr-25 00:00:00.0000, 7.793118320112914E+06, 3.067411379824612E+08, -1.316326372850256E+07,
2461162.500000000, A.D. 2026-May-02 00:00:00.0000, -4.978848823498557E+06, 3.084106385858386E+08, -1.354301720368211E+07,
2461169.500000000, A.D. 2026-May-09 00:00:00.0000, -1.774273354547684E+07, 3.095715595217390E+08, -1.390043179974113E+07,
2461176.500000000, A.D. 2026-May-16 00:00:00.0000, -3.047794872996000E+07, 3.102300499148067E+08, -1.423527977620539E+07,
2461183.500000000, A.D. 2026-May-23 00:00:00.0000, -4.316460632771924E+07, 3.103930216165101E+08, -1.454738358837663E+07,
2461190.500000000, A.D. 2026-May-30 00:00:00.0000, -5.578353266813610E+07, 3.100680875603474E+08, -1.483661327759005E+07,
2461197.500000000, A.D. 2026-Jun-06 00:00:00.0000, -6.831628066376650E+07, 3.092635002823018E+08, -1.510288383019529E+07,
2461204.500000000, A.D. 2026-Jun-13 00:00:00.0000, -8.074513570666762E+07, 3.079880910575333E+08, -1.534615284547006E+07,
2461211.500000000, A.D. 2026-Jun-20 00:00:00.0000, -9.305311621477810E+07, 3.062512127936270E+08, -1.556641824875164E+07,
2461218.500000000, A.D. 2026-Jun-27 00:00:00.0000, -1.052239709609194E+08, 3.040626864919011E+08, -1.576371593970077E+07,
2461225.500000000, A.D. 2026-Jul-04 00:00:00.0000, -1.172421736053782E+08, 3.014327505982273E+08, -1.593811745286265E+07,
2461232.500000000, A.D. 2026-Jul-11 00:00:00.0000, -1.290929145800982E+08, 2.983720131682462E+08, -1.608972767648150E+07,
2461239.500000000, A.D. 2026-Jul-18 00:00:00.0000, -1.407620906096531E+08, 2.948914068940138E+08, -1.621868264601526E+07,
2461246.500000000, A.D. 2026-Jul-25 00:00:00.0000, -1.522362921967638E+08, 2.910021469843405E+08, -1.632514742246924E+07,
2461253.500000000, A.D. 2026-Aug-01 00:00:00.0000, -1.635027893501175E+08, 2.867156918130003E+08, -1.640931407013653E+07,
2461260.500000000, A.D. 2026-Aug-08 00:00:00.0000, -1.745495156389685E+08, 2.820437062383382E+08, -1.647139976090172E+07,
2461267.500000000, A.D. 2026-Aug-15 00:00:00.0000, -1.853650504331838E+08, 2.769980279653218E+08, -1.651164500935926E+07,
2461274.500000000, A.D. 2026-Aug-22 00:00:00.0000, -1.959386003401975E+08, 2.715906380789654E+08, -1.653031187125765E+07,
2461281.500000000, A.D. 2026-Aug-29 00:00:00.0000, -2.062599823531074E+08, 2.658336342776219E+08, -1.652768200940277E+07,
2461288.500000000, A.D. 2026-Sep-05 00:00:00.0000, -2.163196067686036E+08, 2.597392038251646E+08, -1.650405505637448E+07,
$$EOE